     2.100          NAVIGATION                              RINEX VERSION / TYPE
fic2rin                                 12/09/2010 00:21:06 PGM / RUN BY / DATE
                                                            END OF HEADER
27 10 12  8 12  0  0.0  .215080101043D-03  .363797880709D-11  .000000000000D+00
     .840000000000D+02 -.237187500000D+02  .420338937375D-08  .189620415827D+01
    -.158138573170D-05  .217873314396D-01  .800937414169D-07  .515375539398D+04
     .302400000000D+06  .432133674622D-06 -.104955069784D+01 -.137835741043D-06
     .979816352484D+00  .384656250000D+03 -.133799319930D+01 -.796140305296D-08
    -.878608026122D-10  .100000000000D+01  .161300000000D+04  .000000000000D+00
     .240000000000D+01  .000000000000D+00 -.419095158577D-08  .840000000000D+02
     .295206000000D+06  .400000000000D+01
28 10 12  8 12  0  0.0  .837445259094D-05  .181898940355D-11  .000000000000D+00
     .320000000000D+02 -.124750000000D+03  .395695053716D-08  .292796080713D+01
    -.647269189358D-05  .165804880671D-01  .890903174877D-05  .515369530869D+04
     .302400000000D+06  .122934579849D-06  .849961167951D-01 -.214204192162D-06
     .972894732605D+00  .213125000000D+03 -.193441339291D+01 -.747031116845D-08
    -.607168148133D-11  .100000000000D+01  .161300000000D+04  .000000000000D+00
     .240000000000D+01  .000000000000D+00 -.107102096081D-07  .320000000000D+02
     .295206000000D+06  .400000000000D+01
30 10 12  8 12  0  0.0  .303067266941D-03  .329691829393D-11  .000000000000D+00
     .440000000000D+02 -.142968750000D+03  .437339645523D-08  .245702521472D+01
    -.737234950066D-05  .130384176737D-01  .816397368908D-05  .515535373306D+04
     .302400000000D+06  .160187482834D-06  .340071399625D-02 -.763684511185D-07
     .958904134572D+00  .219531250000D+03  .155593755564D+01 -.774210820417D-08
    -.108575951196D-09  .100000000000D+01  .161300000000D+04  .000000000000D+00
     .240000000000D+01  .000000000000D+00 -.791624188423D-08  .440000000000D+02
     .295206000000D+06  .400000000000D+01
31 10 12  8 12  0  0.0  .165626406670D-04  .386535248253D-11  .000000000000D+00
     .250000000000D+02 -.239687500000D+02  .441839832974D-08 -.616076885481D+00
    -.146590173244D-05  .775933533441D-02  .112131237984D-05  .515354729652D+04
     .302400000000D+06 -.162050127983D-06 -.993815653417D+00 -.428408384323D-07
     .978424641942D+00  .368375000000D+03 -.103976993624D+01 -.841213611352D-08
     .714315468392D-10  .100000000000D+01  .161300000000D+04  .000000000000D+00
     .240000000000D+01  .000000000000D+00 -.130385160446D-07  .250000000000D+02
     .295206000000D+06  .400000000000D+01
32 10 12  8 12  0  0.0 -.148698221892D-03 -.829913915368D-11  .000000000000D+00
     .820000000000D+02  .286875000000D+02  .447982946002D-08  .219344474269D+00
     .138394534588D-05  .125476152170D-01  .106338411570D-04  .515356104469D+04
     .302400000000D+06  .353902578354D-07 -.300874938427D+01 -.199303030968D-06
     .957264155129D+00  .177656250000D+03 -.872680651452D+00 -.807355058150D-08
    -.559309011751D-09  .100000000000D+01  .161300000000D+04  .000000000000D+00
     .240000000000D+01  .000000000000D+00 -.372529029846D-08  .820000000000D+02
     .295206000000D+06  .400000000000D+01
 2 10 12  8 11 59 44.0  .307341106236D-03  .238742359215D-11  .000000000000D+00
     .800000000000D+01 -.656250000000D+00  .551665836239D-08  .110663303861D+01
     .391155481339D-07  .982599100098D-02  .495649874210D-05  .515366737938D+04
     .302384000000D+06  .745058059692D-07  .212479590742D+01  .137835741043D-06
     .939010846417D+00  .272062500000D+03 -.312386200893D+01 -.850356849347D-08
    -.315727437029D-09  .100000000000D+01  .161300000000D+04  .000000000000D+00
     .240000000000D+01  .000000000000D+00 -.172294676304D-07  .800000000000D+01
     .297516000000D+06  .400000000000D+01
 2 10 12  8 13 59 44.0  .307358335704D-03  .238742359215D-11  .000000000000D+00
     .140000000000D+02 -.625000000000D-01  .548344269311D-08  .215674892607D+01
     .614672899246D-07  .982604559977D-02  .532902777195D-05  .515366877174D+04
     .309584000000D+06 -.119209289551D-06  .212473402745D+01  .268220901489D-06
     .939009007529D+00  .266656250000D+03 -.312378610982D+01 -.844428030960D-08
    -.169292766009D-09  .100000000000D+01  .161300000000D+04  .000000000000D+00
     .240000000000D+01  .000000000000D+00 -.172294676304D-07  .140000000000D+02
     .302406000000D+06  .400000000000D+01
 1 10 12  8 14  0  0.0 -.189410056919D-03 -.341060513165D-11  .000000000000D+00
     .620000000000D+02 -.125750000000D+03  .414981571362D-08 -.258055420459D+01
    -.669620931149D-05  .438763352577D-02  .907108187675D-05  .515354266930D+04
     .309600000000D+06  .521540641785D-07  .442226866695D-01 -.353902578354D-07
     .967403115149D+00  .206531250000D+03  .932093188120D+00 -.782139722116D-08
    -.392873507616D-11  .100000000000D+01  .161300000000D+04  .000000000000D+00
     .240000000000D+01  .630000000000D+02 -.190921127796D-07  .620000000000D+02
     .302406000000D+06  .400000000000D+01
 3 10 12  8 14  0  0.0  .645801424980D-03  .511590769747D-11  .000000000000D+00
     .900000000000D+02 -.199687500000D+02  .523593238331D-08  .206413651397D+01
    -.113062560558D-05  .138482925249D-01  .105351209641D-04  .515362828445D+04
     .309600000000D+06 -.121071934700D-06  .968998112787D+00 -.292435288429D-06
     .927837506762D+00  .158000000000D+03  .106382302464D+01 -.808426531353D-08
     .605739517197D-09  .100000000000D+01  .161300000000D+04  .000000000000D+00
     .340000000000D+01  .000000000000D+00 -.465661287308D-08  .900000000000D+02
     .302406000000D+06  .400000000000D+01
 4 10 12  8 14  0  0.0  .239588320255D-03  .977706804406D-11  .000000000000D+00
     .770000000000D+02 -.125000000000D+00  .545487007438D-08 -.118553668824D+01
     .819563865662D-07  .953126850072D-02  .491924583912D-05  .515378739357D+04
     .309600000000D+06  .184401869774D-06  .214235867052D+01  .335276126862D-07
     .938136392986D+00  .270187500000D+03  .688783343482D+00 -.841285042899D-08
    -.878608026122D-10  .100000000000D+01  .161300000000D+04  .000000000000D+00
     .240000000000D+01  .000000000000D+00 -.605359673500D-08  .770000000000D+02
     .302406000000D+06  .400000000000D+01
 5 10 12  8 14  0  0.0 -.796685926616D-04 -.602540239925D-11  .000000000000D+00
     .520000000000D+02  .203750000000D+02  .448197240643D-08 -.243831559260D+01
     .105239450932D-05  .213781662751D-02  .104177743196D-04  .515357817078D+04
     .309600000000D+06 -.223517417908D-07 -.309776652451D+01  .745058059692D-08
     .956454803016D+00  .178062500000D+03  .208464805179D+00 -.787318509262D-08
    -.506806824824D-09  .100000000000D+01  .161300000000D+04  .000000000000D+00
     .240000000000D+01  .000000000000D+00 -.977888703346D-08  .520000000000D+02
     .302406000000D+06  .400000000000D+01
 6 10 12  8 14  0  0.0  .396934803575D-03 -.103455022327D-10  .000000000000D+00
     .800000000000D+01 -.290625000000D+01  .513949979508D-08 -.208369463882D+01
     .447034835815D-07  .621778739151D-02  .102128833532D-04  .515365422440D+04
     .309600000000D+06 -.111758708954D-06  .104124571044D+01  .163912773132D-06
     .935003910872D+00  .168906250000D+03 -.900976676266D+00 -.810033741157D-08
     .601453624386D-09  .100000000000D+01  .161300000000D+04  .000000000000D+00
     .240000000000D+01  .000000000000D+00 -.465661287308D-08  .800000000000D+01
     .302406000000D+06  .400000000000D+01
 7 10 12  8 14  0  0.0  .152736902237D-06  .454747350886D-12  .000000000000D+00
     .990000000000D+02 -.153437500000D+02  .444411368660D-08  .415472091909D+00
    -.802800059319D-06  .417919480242D-02  .938773155212D-06  .515368006516D+04
     .309600000000D+06  .353902578354D-07 -.994366845839D+00  .577419996262D-07
     .973227679594D+00  .366968750000D+03 -.311133461279D+01 -.838606359892D-08
     .200008331150D-10  .100000000000D+01  .161300000000D+04  .000000000000D+00
     .240000000000D+01  .000000000000D+00 -.102445483208D-07  .990000000000D+02
     .302406000000D+06  .400000000000D+01
 8 10 12  8 14  0  0.0  .701239332557D-05  .000000000000D+00  .000000000000D+00
     .470000000000D+02 -.276250000000D+02  .400230956940D-08 -.130282299558D+00
    -.141561031342D-05  .114924535155D-01  .153481960297D-05  .515363689232D+04
     .309600000000D+06  .167638063431D-06 -.922380874992D+00  .689178705215D-07
     .994804738182D+00  .364500000000D+03 -.310285612769D+01 -.823534303509D-08
    -.164292557730D-10  .100000000000D+01  .161300000000D+04  .000000000000D+00
     .240000000000D+01  .000000000000D+00 -.419095158577D-08  .470000000000D+02
     .302406000000D+06  .400000000000D+01
 9 10 12  8 14  0  0.0  .474224798381D-04  .238742359215D-11  .000000000000D+00
     .560000000000D+02 -.175625000000D+02  .425267714107D-08 -.246144818954D+00
    -.101700425148D-05  .169751786161D-01  .169873237610D-05  .515369259644D+04
     .309600000000D+06 -.199303030968D-06 -.102410234547D+01  .931322574615D-07
     .982209273919D+00  .360843750000D+03  .155435908605D+01 -.850321133574D-08
     .489306095849D-10  .100000000000D+01  .161300000000D+04  .000000000000D+00
     .340000000000D+01  .000000000000D+00 -.558793544769D-08  .560000000000D+02
     .302406000000D+06  .400000000000D+01
10 10 12  8 14  0  0.0 -.597788020968D-04 -.909494701773D-12  .000000000000D+00
     .137000000000D+03  .175312500000D+02  .450483050142D-08 -.223993393273D+01
     .877305865288D-06  .976866588462D-02  .102631747723D-04  .515354874039D+04
     .309600000000D+06  .149011611938D-07 -.307312156579D+01 -.987201929092D-07
     .951440866348D+00  .176625000000D+03  .673142721611D+00 -.778068123946D-08
    -.438232539859D-09  .100000000000D+01  .161300000000D+04  .000000000000D+00
     .340000000000D+01  .000000000000D+00 -.279396772385D-08  .137000000000D+03
     .302406000000D+06  .400000000000D+01
